NORAD_CAT_ID,OBJECT_NAME,OBJECT_TYPE,EPOCH,MEAN_MOTION,ECCENTRICITY,INCLINATION,RA_OF_ASC_NODE,ARG_OF_PERICENTER,MEAN_ANOMALY,BSTAR,MEAN_MOTION_DOT,MEAN_MOTION_DDOT,TLE_LINE0,TLE_LINE1,TLE_LINE2,SEMIMAJOR_AXIS,PERIOD,APOGEE,PERIGEE,DECAYED
54093.0,STARLINK-5213,PAYLOAD,2024-06-26 11:08:26,15.08848229,0.0001471,53.217,242.6585,106.9405,253.1749,-1.3059e-05,-4.96e-06,0.0,0 STARLINK-5213,1 54093U 22136AU  24178.46419521 -.00000496  00000-0 -13059-4 0  9992,2 54093  53.2170 242.6585 0001471 106.9405 253.1749 15.08848229 93203,6917.855,95.437,540.738,538.703,0.0
54093.0,STARLINK-5213,PAYLOAD,2024-06-27 10:59:14,15.0883657,0.0001432,53.2165,238.2027,107.6704,252.4444,6.1808e-05,6.96e-06,0.0,0 STARLINK-5213,1 54093U 22136AU  24179.45780318  .00000696  00000-0  61808-4 0  9992,2 54093  53.2165 238.2027 0001432 107.6704 252.4444 15.08836570 93824,6917.891,95.438,540.747,538.765,0.0
54093.0,STARLINK-5213,PAYLOAD,2024-06-28 10:50:01,15.08839929,0.000142,53.2157,233.742,108.9845,251.1301,9.883e-06,-1.31e-06,0.0,0 STARLINK-5213,1 54093U 22136AU  24180.45140622 -.00000131  00000-0  98830-5 0  9993,2 54093  53.2157 233.7420 0001420 108.9845 251.1301 15.08839929 93503,6917.881,95.438,540.728,538.763,0.0
54093.0,STARLINK-5213,PAYLOAD,2024-06-29 12:16:09,15.08869054,0.0001445,53.2153,228.9838,109.9179,250.1969,0.00033149,4.996e-05,0.0,0 STARLINK-5213,1 54093U 22136AU  24181.51122025  .00004996  00000-0  33149-3 0  9990,2 54093  53.2153 228.9838 0001445 109.9179 250.1969 15.08869054 94137,6917.792,95.436,540.656,538.657,0.0
54093.0,STARLINK-5213,PAYLOAD,2024-06-30 10:31:36,15.08834391,0.0001221,53.2147,224.8174,104.6929,255.4199,-2.4889e-05,-6.84e-06,0.0,0 STARLINK-5213,1 54093U 22136AU  24182.43861131 -.00000684  00000-0 -24889-4 0  9994,2 54093  53.2147 224.8174 0001221 104.6929 255.4199 15.08834391 94279,6917.898,95.438,540.607,538.918,0.0
54093.0,STARLINK-5213,PAYLOAD,2024-06-30 20:03:55,15.08833887,0.0001246,53.2152,223.0335,95.6063,264.5072,-1.8991e-05,-5.9e-06,0.0,0 STARLINK-5213,1 54093U 22136AU  24182.83605341 -.00000590  00000-0 -18991-4 0  9990,2 54093  53.2152 223.0335 0001246  95.6063 264.5072 15.08833887 93864,6917.899,95.438,540.626,538.902,0.0
54093.0,STARLINK-5213,PAYLOAD,2024-07-01 11:57:45,15.088524,0.0001856,53.2156,220.0579,131.7137,228.4014,-0.00011817,-2.169e-05,0.0,0 STARLINK-5213,1 54093U 22136AU  24183.49844394 -.00002169  00000-0 -11817-3 0  9999,2 54093  53.2156 220.0579 0001856 131.7137 228.4014 15.08852400 94437,6917.842,95.437,540.991,538.424,0.0
54093.0,STARLINK-5213,PAYLOAD,2024-07-01 19:54:40,15.08873339,0.0001497,53.2158,218.5703,115.4611,244.6536,-0.00049272,-8.128e-05,0.0,0 STARLINK-5213,1 54093U 22136AU  24183.82963460 -.00008128  00000-0 -49272-3 0  9999,2 54093  53.2158 218.5703 0001497 115.4611 244.6536 15.08873339 94485,6917.778,95.435,540.679,538.608,0.0
54093.0,STARLINK-5213,PAYLOAD,2024-07-02 02:16:14,15.08830637,0.0001402,53.2154,217.3819,103.5834,256.5314,0.00015439,2.169e-05,0.0,0 STARLINK-5213,1 54093U 22136AU  24184.09461412  .00002169  00000-0  15439-3 0  9994,2 54093  53.2154 217.3819 0001402 103.5834 256.5314 15.08830637 94522,6917.909,95.438,540.744,538.804,0.0
54093.0,STARLINK-5213,PAYLOAD,2024-07-02 08:37:47,15.08834086,0.0001399,53.2152,216.1934,99.8914,260.2236,0.00018039,2.584e-05,0.0,0 STARLINK-5213,1 54093U 22136AU  24184.35957400  .00002584  00000-0  18039-3 0  9990,2 54093  53.2152 216.1934 0001399  99.8914 260.2236 15.08834086 94095,6917.898,95.438,540.731,538.796,0.0
54093.0,STARLINK-5213,PAYLOAD,2024-07-03 05:17:47,15.08839176,0.0001402,53.2152,212.3273,100.3624,259.7526,0.00012234,1.66e-05,0.0,0 STARLINK-5213,1 54093U 22136AU  24185.22069422  .00001660  00000-0  12234-3 0  9990,2 54093  53.2152 212.3273 0001402 100.3624 259.7526 15.08839176 94696,6917.883,95.438,540.718,538.778,0.0
54093.0,STARLINK-5213,PAYLOAD,2024-07-03 08:28:34,15.08839363,0.0001366,53.2153,211.7338,95.2217,264.8931,0.00012746,1.741e-05,0.0,0 STARLINK-5213,1 54093U 22136AU  24185.35317444  .00001741  00000-0  12746-3 0  9992,2 54093  53.2153 211.7338 0001366  95.2217 264.8931 15.08839363 94247,6917.882,95.438,540.692,538.802,0.0
54093.0,STARLINK-5213,PAYLOAD,2024-07-04 09:54:44,15.0884276,0.0001313,53.2152,206.9758,91.1804,268.9339,8.5837e-05,1.079e-05,0.0,0 STARLINK-5213,1 54093U 22136AU  24186.41301205  .00001079  00000-0  85837-4 0  9994,2 54093  53.2152 206.9758 0001313  91.1804 268.9339 15.08842760 94878,6917.872,95.437,540.645,538.829,0.0
54093.0,STARLINK-5213,PAYLOAD,2024-07-04 17:51:40,15.08840071,0.0001328,53.2153,205.4891,91.0493,269.0651,5.4353e-05,5.77e-06,0.0,0 STARLINK-5213,1 54093U 22136AU  24186.74421387  .00000577  00000-0  54353-4 0  9995,2 54093  53.2153 205.4891 0001328  91.0493 269.0651 15.08840071 94456,6917.88,95.438,540.664,538.826,0.0
54093.0,STARLINK-5213,PAYLOAD,2024-07-05 04:59:22,15.08837963,0.0001374,53.216,203.4078,91.367,268.748,3.0624e-05,1.99e-06,0.0,0 STARLINK-5213,1 54093U 22136AU  24187.20789621  .00000199  00000-0  30624-4 0  9990,2 54093  53.2160 203.4078 0001374  91.3670 268.7480 15.08837963 94991,6917.887,95.438,540.702,538.801,0.0
54093.0,STARLINK-5213,PAYLOAD,2024-07-05 08:10:08,15.08839139,0.0001371,53.2163,202.8136,91.1816,268.9333,3.5594e-05,2.79e-06,0.0,0 STARLINK-5213,1 54093U 22136AU  24187.34037510  .00000279  00000-0  35594-4 0  9998,2 54093  53.2163 202.8136 0001371  91.1816 268.9333 15.08839139 94546,6917.883,95.438,540.696,538.8,0.0
54093.0,STARLINK-5213,PAYLOAD,2024-07-06 08:00:55,15.08839533,0.000138,53.2164,198.3537,93.0339,267.0811,3.8953e-05,3.32e-06,0.0,0 STARLINK-5213,1 54093U 22136AU  24188.33397522  .00000332  00000-0  38953-4 0  9992,2 54093  53.2164 198.3537 0001380  93.0339 267.0811 15.08839533 95160,6917.882,95.438,540.701,538.792,0.0
54093.0,STARLINK-5213,PAYLOAD,2024-07-06 17:33:14,15.08836679,0.0001383,53.2166,196.5697,92.0671,268.0479,2.5956e-05,1.25e-06,0.0,0 STARLINK-5213,1 54093U 22136AU  24188.73141720  .00000125  00000-0  25956-4 0  9992,2 54093  53.2166 196.5697 0001383  92.0671 268.0479 15.08836679 94753,6917.891,95.438,540.712,538.799,0.0
54093.0,STARLINK-5213,PAYLOAD,2024-07-07 04:40:56,15.08833955,0.0001364,53.2164,194.4878,90.9728,269.1421,2.7423e-05,1.48e-06,0.0,0 STARLINK-5213,1 54093U 22136AU  24189.19510026  .00000148  00000-0  27423-4 0  9998,2 54093  53.2164 194.4878 0001364  90.9728 269.1421 15.08833955 95291,6917.899,95.438,540.707,538.82,0.0
54093.0,STARLINK-5213,PAYLOAD,2024-07-07 09:27:05,15.08835898,0.0001385,53.2163,193.5959,91.7125,268.4025,3.5812e-05,2.82e-06,0.0,0 STARLINK-5213,1 54093U 22136AU  24189.39381922  .00000282  00000-0  35812-4 0  9991,2 54093  53.2163 193.5959 0001385  91.7125 268.4025 15.08835898 94854,6917.893,95.438,540.716,538.8,0.0
54093.0,STARLINK-5213,PAYLOAD,2024-07-08 09:17:52,15.08843289,0.0001399,53.2162,189.1348,87.3699,272.7453,8.476e-05,1.061e-05,0.0,0 STARLINK-5213,1 54093U 22136AU  24190.38741376  .00001061  00000-0  84760-4 0  9997,2 54093  53.2162 189.1348 0001399  87.3699 272.7453 15.08843289 95473,6917.87,95.437,540.703,538.768,0.0
54093.0,STARLINK-5213,PAYLOAD,2024-07-08 17:14:48,15.0883741,0.0001383,53.2159,187.6474,85.4522,274.6628,3.9246e-05,3.37e-06,0.0,0 STARLINK-5213,1 54093U 22136AU  24190.71861893  .00000337  00000-0  39246-4 0  9995,2 54093  53.2159 187.6474 0001383  85.4522 274.6628 15.08837410 95529,6917.888,95.438,540.71,538.797,0.0
54093.0,STARLINK-5213,PAYLOAD,2024-07-09 09:08:39,15.08838536,0.000138,53.2157,184.6717,90.7325,269.3825,5.4836e-05,5.85e-06,0.0,0 STARLINK-5213,1 54093U 22136AU  24191.38101833  .00000585  00000-0  54836-4 0  9997,2 54093  53.2157 184.6717 0001380  90.7325 269.3825 15.08838536 95150,6917.885,95.438,540.705,538.795,0.0
54093.0,STARLINK-5213,PAYLOAD,2024-07-10 05:48:40,15.08843487,0.0001383,53.2158,180.8062,89.9938,270.1212,3.4758e-05,2.65e-06,0.0,0 STARLINK-5213,1 54093U 22136AU  24192.24213536  .00000265  00000-0  34758-4 0  9993,2 54093  53.2158 180.8062 0001383  89.9938 270.1212 15.08843487 95752,6917.87,95.437,540.691,538.778,0.0
54093.0,STARLINK-5213,PAYLOAD,2024-07-10 08:59:26,15.08844238,0.0001396,53.2157,180.2117,89.0724,271.0428,4.037e-05,3.55e-06,0.0,0 STARLINK-5213,1 54093U 22136AU  24192.37461445  .00000355  00000-0  40370-4 0  9998,2 54093  53.2157 180.2117 0001396  89.0724 271.0428 15.08844238 95309,6917.867,95.437,540.698,538.767,0.0
54093.0,STARLINK-5213,PAYLOAD,2024-07-11 04:04:04,15.08837692,0.0001432,53.2161,176.6428,90.9938,269.1218,3.0637e-05,2e-06,0.0,0 STARLINK-5213,1 54093U 22136AU  24193.16949897  .00000200  00000-0  30637-4 0  9992,2 54093  53.2161 176.6428 0001432  90.9938 269.1218 15.08837692 95892,6917.887,95.438,540.743,538.762,0.0
54093.0,STARLINK-5213,PAYLOAD,2024-07-11 08:50:14,15.08838374,0.0001471,53.2164,175.751,91.8209,268.2952,3.5685e-05,2.8e-06,0.0,0 STARLINK-5213,1 54093U 22136AU  24193.36821852  .00000280  00000-0  35685-4 0  9990,2 54093  53.2164 175.7510 0001471  91.8209 268.2952 15.08838374 95456,6917.885,95.438,540.768,538.733,0.0
54093.0,STARLINK-5213,PAYLOAD,2024-07-12 05:30:14,15.08841899,0.0001445,53.2164,171.8853,90.0492,270.0666,3.9641e-05,3.43e-06,0.0,0 STARLINK-5213,1 54093U 22136AU  24194.22933697  .00000343  00000-0  39641-4 0  9993,2 54093  53.2164 171.8853 0001445  90.0492 270.0666 15.08841899 96055,6917.875,95.437,540.739,538.74,0.0
54093.0,STARLINK-5213,PAYLOAD,2024-07-12 08:41:01,15.08841016,0.0001455,53.2165,171.291,89.7573,270.3586,3.1133e-05,2.08e-06,0.0,0 STARLINK-5213,1 54093U 22136AU  24194.36181777  .00000208  00000-0  31133-4 0  9990,2 54093  53.2165 171.2910 0001455  89.7573 270.3586 15.08841016 95605,6917.877,95.437,540.749,538.736,0.0
54093.0,STARLINK-5213,PAYLOAD,2024-07-12 15:02:33,15.08838344,0.0001427,53.2163,170.1013,88.5976,271.518,1.2594e-05,-8.8e-07,0.0,0 STARLINK-5213,1 54093U 22136AU  24194.62678038 -.00000088  00000-0  12594-4 0  9997,2 54093  53.2163 170.1013 0001427  88.5976 271.5180 15.08838344 95645,6917.885,95.438,540.738,538.763,0.0
